NORAD_CAT_ID,OBJECT_NAME,OBJECT_TYPE,EPOCH,MEAN_MOTION,ECCENTRICITY,INCLINATION,RA_OF_ASC_NODE,ARG_OF_PERICENTER,MEAN_ANOMALY,BSTAR,MEAN_MOTION_DOT,MEAN_MOTION_DDOT,TLE_LINE0,TLE_LINE1,TLE_LINE2,SEMIMAJOR_AXIS,PERIOD,APOGEE,PERIGEE,DECAYED
55396.0,STARLINK-5283,PAYLOAD,2023-11-23 13:14:25,14.98326759,0.0002513,70.0008,15.0483,266.3632,93.7239,-2.4429e-05,-3.84e-06,0.0,0 STARLINK-5283,1 55396U 23014F   23327.55168960 -.00000384  00000-0 -24429-4 0  9997,2 55396  70.0008  15.0483 0002513 266.3632  93.7239 14.98326759 46664,6950.203,96.107,573.814,570.321,0.0
55396.0,STARLINK-5283,PAYLOAD,2023-11-24 13:16:27,14.98325383,0.0002543,70.0005,12.5226,267.1056,92.9812,-8.2119e-05,-1.072e-05,0.0,0 STARLINK-5283,1 55396U 23014F   23328.55309389 -.00001072  00000-0 -82119-4 0  9995,2 55396  70.0005  12.5226 0002543 267.1056  92.9812 14.98325383 46817,6950.207,96.107,573.84,570.305,0.0
55396.0,STARLINK-5283,PAYLOAD,2023-11-25 03:41:39,14.98331879,0.0002894,69.9994,11.0074,261.196,98.8872,5.7382e-05,5.92e-06,0.0,0 STARLINK-5283,1 55396U 23014F   23329.15392530  .00000592  00000-0  57382-4 0  9990,2 55396  69.9994  11.0074 0002894 261.1960  98.8872 14.98331879 45966,6950.187,96.107,574.063,570.041,0.0
55396.0,STARLINK-5283,PAYLOAD,2023-11-25 13:18:26,14.98377913,0.0002962,69.9997,9.997,260.9201,99.1623,-0.000529,-6.407e-05,0.0,0 STARLINK-5283,1 55396U 23014F   23329.55446801 -.00006407  00000-0 -52900-3 0  9998,2 55396  69.9997   9.9970 0002962 260.9201  99.1623 14.98377913 46969,6950.045,96.104,573.968,569.851,0.0
55396.0,STARLINK-5283,PAYLOAD,2023-11-26 03:43:39,14.98333627,0.000238,70.0006,8.4825,255.5204,104.5691,0.00013584,1.528e-05,0.0,0 STARLINK-5283,1 55396U 23014F   23330.15531904  .00001528  00000-0  13584-3 0  9997,2 55396  70.0006   8.4825 0002380 255.5204 104.5691 14.98333627 46110,6950.182,96.107,573.701,570.393,0.0
55396.0,STARLINK-5283,PAYLOAD,2023-11-26 11:44:20,14.98330594,0.000246,70.0003,7.6408,265.5654,94.5224,9.1387e-05,9.98e-06,0.0,0 STARLINK-5283,1 55396U 23014F   23330.48912200  .00000998  00000-0  91387-4 0  9993,2 55396  70.0003   7.6408 0002460 265.5654  94.5224 14.98330594 47104,6950.191,96.107,573.766,570.346,0.0
55396.0,STARLINK-5283,PAYLOAD,2023-11-27 03:45:42,14.98319422,0.0002219,70.0019,5.9593,244.7083,115.3846,-0.0001495,-1.876e-05,0.0,0 STARLINK-5283,1 55396U 23014F   23331.15673847 -.00001876  00000-0 -14950-3 0  9997,2 55396  70.0019   5.9593 0002219 244.7083 115.3846 14.98319422 46269,6950.226,96.108,573.633,570.548,0.0
55396.0,STARLINK-5283,PAYLOAD,2023-11-27 11:46:23,14.98310685,0.0002377,70.0005,5.1164,255.0685,105.0211,-0.00027038,-3.316e-05,0.0,0 STARLINK-5283,1 55396U 23014F   23331.49054948 -.00003316  00000-0 -27038-3 0  9991,2 55396  70.0005   5.1164 0002377 255.0685 105.0211 14.98310685 46318,6950.253,96.108,573.77,570.466,0.0
55396.0,STARLINK-5283,PAYLOAD,2023-11-28 11:48:23,14.98323924,0.0002408,70.0007,2.5907,277.0237,83.0648,-4.1948e-06,-1.43e-06,0.0,0 STARLINK-5283,1 55396U 23014F   23332.49193934 -.00000143  00000-0 -41948-5 0  9994,2 55396  70.0007   2.5907 0002408 277.0237  83.0648 14.98323924 46463,6950.212,96.107,573.75,570.403,0.0
55396.0,STARLINK-5283,PAYLOAD,2023-11-29 03:49:43,14.9832602,0.0002766,69.9994,0.9071,265.4087,94.6756,0.0003118,3.629e-05,0.0,0 STARLINK-5283,1 55396U 23014F   23333.15952893  .00003629  00000-0  31180-3 0  9990,2 55396  69.9994   0.9071 0002766 265.4087  94.6756 14.98326020 46569,6950.205,96.107,573.993,570.148,0.0
55396.0,STARLINK-5283,PAYLOAD,2023-11-29 11:50:23,14.98333685,0.0002787,69.9993,0.0657,264.1204,95.9637,0.00034988,4.085e-05,0.0,0 STARLINK-5283,1 55396U 23014F   23333.49332336  .00004085  00000-0  34988-3 0  9997,2 55396  69.9993   0.0657 0002787 264.1204  95.9637 14.98333685 47556,6950.181,96.107,573.984,570.109,0.0
55396.0,STARLINK-5283,PAYLOAD,2023-11-30 11:52:24,14.98332987,0.0002429,70.0005,357.5429,254.2245,105.8646,-9.1561e-06,-2.02e-06,0.0,0 STARLINK-5283,1 55396U 23014F   23334.49473114 -.00000202  00000-0 -91561-5 0  9999,2 55396  70.0005 357.5429 0002429 254.2245 105.8646 14.98332987 46765,6950.184,96.107,573.737,570.36,0.0
55396.0,STARLINK-5283,PAYLOAD,2023-12-01 11:54:25,14.98349188,0.000242,70.0004,355.0162,257.521,102.5678,-0.00033508,-4.091e-05,0.0,0 STARLINK-5283,1 55396U 23014F   23335.49612545 -.00004091  00000-0 -33508-3 0  9998,2 55396  70.0004 355.0162 0002420 257.5210 102.5678 14.98349188 46917,6950.134,96.106,573.68,570.317,0.0
55396.0,STARLINK-5283,PAYLOAD,2023-12-02 10:20:16,14.98358069,0.0002029,70.0006,352.6602,246.6057,113.4889,-0.00012554,-1.591e-05,0.0,0 STARLINK-5283,1 55396U 23014F   23336.43074874 -.00001591  00000-0 -12554-3 0  9990,2 55396  70.0006 352.6602 0002029 246.6057 113.4889 14.98358069 47053,6950.106,96.105,573.381,570.561,0.0
55396.0,STARLINK-5283,PAYLOAD,2023-12-03 03:57:48,14.98305595,0.0002625,70.0002,350.8084,256.9063,103.1803,-0.0002343,-2.886e-05,0.0,0 STARLINK-5283,1 55396U 23014F   23337.16514520 -.00002886  00000-0 -23430-3 0  9991,2 55396  70.0002 350.8084 0002625 256.9063 103.1803 14.98305595 47166,6950.268,96.109,573.958,570.309,0.0
55396.0,STARLINK-5283,PAYLOAD,2023-12-03 11:58:29,14.98305477,0.0002538,70.0001,349.9662,251.4848,108.6036,-0.00022005,-2.716e-05,0.0,0 STARLINK-5283,1 55396U 23014F   23337.49894881 -.00002716  00000-0 -22005-3 0  9997,2 55396  70.0001 349.9662 0002538 251.4848 108.6036 14.98305477 48157,6950.269,96.109,573.898,570.37,0.0
55396.0,STARLINK-5283,PAYLOAD,2023-12-04 03:59:49,14.98317691,0.0002565,70.0005,348.2828,257.7147,102.3725,-0.00022053,-2.722e-05,0.0,0 STARLINK-5283,1 55396U 23014F   23338.16654729 -.00002722  00000-0 -22053-3 0  9997,2 55396  70.0005 348.2828 0002565 257.7147 102.3725 14.98317691 47312,6950.231,96.108,573.879,570.313,0.0
55396.0,STARLINK-5283,PAYLOAD,2023-12-04 10:24:22,14.98316939,0.000241,70.0008,347.6103,248.5543,111.5359,-0.00019274,-2.391e-05,0.0,0 STARLINK-5283,1 55396U 23014F   23338.43358923 -.00002391  00000-0 -19274-3 0  9997,2 55396  70.0008 347.6103 0002410 248.5543 111.5359 14.98316939 48298,6950.233,96.108,573.773,570.423,0.0
55396.0,STARLINK-5283,PAYLOAD,2023-12-05 04:01:51,14.98292728,0.0002527,70.0001,345.7578,251.8165,108.2719,1.4336e-05,7.8e-07,0.0,0 STARLINK-5283,1 55396U 23014F   23339.16796214  .00000078  00000-0  14336-4 0  9990,2 55396  70.0001 345.7578 0002527 251.8165 108.2719 14.98292728 47462,6950.308,96.109,573.929,570.417,0.0
55396.0,STARLINK-5283,PAYLOAD,2023-12-05 10:26:23,14.98313368,0.0002227,70.0014,345.0822,263.9772,96.1133,0.00016751,1.905e-05,0.0,0 STARLINK-5283,1 55396U 23014F   23339.43499196  .00001905  00000-0  16751-3 0  9991,2 55396  70.0014 345.0822 0002227 263.9772  96.1133 14.98313368 47500,6950.244,96.108,573.657,570.562,0.0
55396.0,STARLINK-5283,PAYLOAD,2023-12-06 04:03:51,14.98331522,0.0002398,70.0007,343.2337,252.3308,107.7589,0.0002155,2.479e-05,0.0,0 STARLINK-5283,1 55396U 23014F   23340.16934073  .00002479  00000-0  21550-3 0  9991,2 55396  70.0007 343.2337 0002398 252.3308 107.7589 14.98331522 47617,6950.188,96.107,573.72,570.387,0.0
55396.0,STARLINK-5283,PAYLOAD,2023-12-06 10:28:23,14.98332487,0.0002343,70.0006,342.5579,256.1068,103.983,0.000175,1.996e-05,0.0,0 STARLINK-5283,1 55396U 23014F   23340.43638121  .00001996  00000-0  17500-3 0  9999,2 55396  70.0006 342.5579 0002343 256.1068 103.9830 14.98332487 48597,6950.185,96.107,573.679,570.422,0.0
55396.0,STARLINK-5283,PAYLOAD,2023-12-07 04:05:51,14.98325618,0.0002578,69.9996,340.7073,256.9207,103.1664,0.00024418,2.821e-05,0.0,0 STARLINK-5283,1 55396U 23014F   23341.17073840  .00002821  00000-0  24418-3 0  9996,2 55396  69.9996 340.7073 0002578 256.9207 103.1664 14.98325618 47767,6950.206,96.107,573.863,570.28,0.0
55396.0,STARLINK-5283,PAYLOAD,2023-12-07 10:30:24,14.98325078,0.000257,69.9996,340.0327,260.6689,99.4179,0.00021061,2.421e-05,0.0,0 STARLINK-5283,1 55396U 23014F   23341.43778007  .00002421  00000-0  21061-3 0  9999,2 55396  69.9996 340.0327 0002570 260.6689  99.4179 14.98325078 48747,6950.208,96.107,573.859,570.287,0.0
55396.0,STARLINK-5283,PAYLOAD,2023-12-08 04:07:51,14.98345259,0.0002714,69.9992,338.1807,264.2866,95.7984,-2.4391e-05,-3.84e-06,0.0,0 STARLINK-5283,1 55396U 23014F   23342.17212791 -.00000384  00000-0 -24391-4 0  9992,2 55396  69.9992 338.1807 0002714 264.2866  95.7984 14.98345259 47915,6950.146,96.106,573.897,570.124,0.0
55396.0,STARLINK-5283,PAYLOAD,2023-12-08 08:56:15,14.98344283,0.0002449,69.9997,337.6759,255.8974,104.1913,-1.2186e-05,-2.38e-06,0.0,0 STARLINK-5283,1 55396U 23014F   23342.37240611 -.00000238  00000-0 -12186-4 0  9993,2 55396  69.9997 337.6759 0002449 255.8974 104.1913 14.98344283 48881,6950.149,96.106,573.716,570.312,0.0
55396.0,STARLINK-5283,PAYLOAD,2023-12-09 04:09:52,14.98333643,0.0002455,69.9997,335.6561,257.124,102.9645,-3.4867e-06,-1.35e-06,0.0,0 STARLINK-5283,1 55396U 23014F   23343.17352615 -.00000135  00000-0 -34867-5 0  9997,2 55396  69.9997 335.6561 0002455 257.1240 102.9645 14.98333643 48064,6950.182,96.107,573.753,570.34,0.0
55396.0,STARLINK-5283,PAYLOAD,2023-12-09 08:58:16,14.9833332,0.0002617,69.9992,335.151,260.0213,100.065,-3.4403e-05,-5.03e-06,0.0,0 STARLINK-5283,1 55396U 23014F   23343.37380666 -.00000503  00000-0 -34403-4 0  9990,2 55396  69.9992 335.1510 0002617 260.0213 100.0650 14.98333320 49036,6950.183,96.107,573.866,570.229,0.0
55396.0,STARLINK-5283,PAYLOAD,2023-12-09 23:23:29,14.98329095,0.0002356,69.9999,333.6363,256.1774,103.9123,-0.00011274,-1.438e-05,0.0,0 STARLINK-5283,1 55396U 23014F   23343.97465060 -.00001438  00000-0 -11274-3 0  9996,2 55396  69.9999 333.6363 0002356 256.1774 103.9123 14.98329095 48186,6950.196,96.107,573.698,570.423,0.0
55396.0,STARLINK-5283,PAYLOAD,2023-12-10 09:00:19,14.98317569,0.0003576,70.0004,332.6269,257.7055,102.3704,-0.0001948,-2.416e-05,0.0,0 STARLINK-5283,1 55396U 23014F   23344.37522056 -.00002416  00000-0 -19480-3 0  9994,2 55396  70.0004 332.6269 0003576 257.7055 102.3704 14.98317569 48242,6950.231,96.108,574.582,569.611,0.0
